satname,norad_id,inclination_deg,eccentricity,mean_motion_rev_per_day,perigee_km,apogee_km,l1,l2
STARLINK-1404,45686,53.1589,0.0003485,15.39603177,444.90321341000254,449.66053036370795,1 45686U 20035AF  26113.47939314  .00047564  00000+0  11922-2 0  9994,2 45686  53.1589 199.9972 0003485   9.9360 350.1713 15.39603177325850
STARLINK-1413,45689,53.1592,0.0002037,15.31267174,470.6351517863304,473.42591003842426,1 45689U 20035AJ  26113.50258118  .00041734  00000+0  13674-2 0  9996,2 45689  53.1592 201.3659 0002037  37.3294 322.7849 15.31267174325759
STARLINK-1417,45693,53.0505,0.0004785,15.14740908,518.4636500685183,525.0668565249243,1 45693U 20035AN  26113.56197696  .00019491  00000+0  10525-2 0  9997,2 45693  53.0505 210.5703 0004785   9.2390 350.8689 15.14740908325695
STARLINK-1420,45695,53.0474,0.0006769,15.62687636,375.3227704135361,384.4717972269709,1 45695U 20035AQ  26113.31776959  .00094321  00000+0  10257-2 0  9994,2 45695  53.0474 165.6071 0006769 346.6943  13.3890 15.62687636326312
STARLINK-1422,45696,53.1582,0.0002145,15.31453,470.0071462600854,472.9456304036803,1 45696U 20035AR  26113.50810465  .00039819  00000+0  12980-2 0  9993,2 45696  53.1582 201.3218 0002145  25.8133 334.2976 15.31453000325834
STARLINK-1351,45697,53.0463,0.0007421,15.59911921,382.8906764973299,392.9328460688266,1 45697U 20035AS  26113.47202710  .00080806  00000+0  98027-3 0  9997,2 45697  53.0463 164.6162 0007421 347.9468  12.1365 15.59911921326344
STARLINK-1400,45700,53.0446,0.0005801,15.58648105,387.64162134093385,395.49583392613476,1 45700U 20035AV  26113.62243697  .00076720  00000+0  97763-3 0  9994,2 45700  53.0446 165.8127 0005801 315.6049  44.4497 15.58648105326334
STARLINK-1403,45701,53.1546,0.0001743,15.30337918,473.60883456380634,475.99776955310426,1 45701U 20035AW  26113.48984563  .00036055  00000+0  12183-2 0  9992,2 45701  53.1546 188.6179 0001743  25.5227 334.5859 15.30337918326009
STARLINK-1407,45703,53.0298,0.000286,15.67306109,364.68555822935923,368.54355612006293,1 45703U 20035AY  26113.67620719  .00115582  00000+0  10432-2 0  9993,2 45703  53.0298  95.1275 0002860 307.8843  52.1914 15.67306109327334
STARLINK-1411,45706,53.0374,0.0005821,15.72793529,347.00030770212015,354.83427270677566,1 45706U 20035BB  26114.00003472  .00107238  00000+0  77130-3 0  9993,2 45706  53.0374 118.2447 0005821  29.2556 162.4195 15.72793529  5988
STARLINK-1423,45710,53.0442,0.0007685,15.64477432,369.5524881247411,379.931663264083,1 45710U 20035BF  26113.31423116  .00033799  00000+0  34863-3 0  9998,2 45710  53.0442 165.4125 0007685 319.9661  40.0786 15.64477432326304
STARLINK-1433,45711,53.044,0.0007255,15.63845618,371.66025407171037,381.46132056110673,1 45711U 20035BG  26113.60687383  .00087753  00000+0  91295-3 0  9990,2 45711  53.0440 162.4373 0007255 328.6602  31.3978 15.63845618326377
STARLINK-1434,45712,53.0523,0.0003835,15.3075917,470.9183764151221,476.1736172737028,1 45712U 20035BH  26113.47840243  .00026892  00000+0  90093-3 0  9994,2 45712  53.0523 171.8998 0003835 327.5631  32.5133 15.30759170326240
STARLINK-1465,45731,53.0483,0.0004917,15.56872525,393.38369201664136,400.04608136201205,1 45731U 20038B   26112.19863847  .00062224  00000+0  85039-3 0  9994,2 45731  53.0483  13.2775 0004917  98.1565 262.0004 15.56872525323148
STARLINK-1471,45735,53.0461,0.0001882,15.5128157,411.70514294690565,414.26132060214604,1 45735U 20038F   26113.64806721  .00020236  00000+0  34606-3 0  9998,2 45735  53.0461 286.2177 0001882  62.6389 297.4810 15.51281570324501
STARLINK-1480,45741,53.0518,0.000271,15.58678975,389.6447775773049,393.31390963553986,1 45741U 20038M   26112.97088953  .00045627  00000+0  58590-3 0  9998,2 45741  53.0518   3.4174 0002710 163.2510 196.8592 15.58678975323360
STARLINK-1500,45744,53.0375,0.0003435,15.3707192,452.4261325003754,457.1203418333098,1 45744U 20038Q   26112.92292954  .00017005  00000+0  47140-3 0  9992,2 45744  53.0375 344.8717 0003435  71.9037 288.2339 15.37071920323610
STARLINK-1504,45746,53.0224,7.97e-05,15.56107655,398.3945904415623,399.4748556742179,1 45746U 20038S   26112.78503538  .00023624  00000+0  33813-3 0  9997,2 45746  53.0224 288.9539 0000797  29.5990 330.5065 15.56107655324377
STARLINK-1506,45747,53.0761,0.0004086,15.27594165,480.2032179534126,485.81014456974026,1 45747U 20038T   26113.10762205  .00009713  00000+0  36753-3 0  9992,2 45747  53.0761 356.7186 0004086  57.0918 303.0474 15.27594165323470
STARLINK-1464,45751,53.05,0.0002692,15.49527962,416.2764121340042,419.9355093440663,1 45751U 20038X   26113.92910118  .00054384  00000+0  97143-3 0  9999,2 45751  53.0500 348.6268 0002692 113.2147 246.9144 15.49527962323651
STARLINK-1477,45754,53.0528,0.0003636,15.16597227,513.6270148753647,518.6405285805649,1 45754U 20038AA  26113.14651569  .00013460  00000+0  69520-3 0  9996,2 45754  53.0528  10.5280 0003636 105.5901 254.5494 15.16597227323270
STARLINK-1478,45755,53.0485,0.000256,15.62604726,378.40621272378394,381.86644866910046,1 45755U 20038AB  26112.93141717  .00080126  00000+0  87730-3 0  9998,2 45755  53.0485 342.7096 0002560  97.4342 262.6962 15.62604726323635
STARLINK-1493,45759,53.0504,0.0004441,15.57740571,391.19021581950255,397.2054035974852,1 45759U 20038AF  26113.72345597  .00072500  00000+0  95703-3 0  9998,2 45759  53.0504 347.0731 0004441 171.9054 188.2030 15.57740571323646
STARLINK-1494,45760,53.0458,0.0002924,15.84768735,315.01835081957233,318.93365290305974,1 45760U 20038AG  26112.86605097  .00132789  00000+0  55463-3 0  9993,2 45760  53.0458 290.2502 0002924 207.9963 152.0903 15.84768735324375
STARLINK-1502,45764,53.0487,0.0005962,15.54375849,399.92407563829875,408.0110571232517,1 45764U 20038AL  26113.92906924  .00097749  00000+0  14536-2 0  9999,2 45764  53.0487 348.7166 0005962 158.2566 201.8698 15.54375849323659
STARLINK-1470,45772,53.0448,0.0002825,15.31769184,468.5990195917757,472.46851857630736,1 45772U 20038AU  26112.89896846  .00031410  00000+0  10174-2 0  9991,2 45772  53.0448 328.5035 0002825 155.7073 204.4061 15.31769184323844
STARLINK-1482,45773,53.1604,0.0003072,15.33868089,462.1826567116177,466.386640572543,1 45773U 20038AV  26112.91326218  .00029563  00000+0  89755-3 0  9994,2 45773  53.1604 345.0517 0003072 152.9238 207.1925 15.33868089323627
STARLINK-1496,45780,53.0491,0.0001474,15.55677511,399.1847788001205,401.18302780241356,1 45780U 20038BC  26112.88061087  .00070119  00000+0  10001-2 0  9998,2 45780  53.0491 325.1181 0001474 276.3600  83.7242 15.55677511323871
STARLINK-1513,45786,53.1603,0.0001315,15.31706229,469.8208020805587,471.6220518468499,1 45786U 20038BJ  26112.90099837  .00001167  00000+0  49369-4 0  9999,2 45786  53.1603 345.7116 0001315 100.0904 260.0246 15.31706229323612
STARLINK-1522,46027,53.0643,0.0001426,15.11136855,531.7462261589926,533.717205916807,1 46027U 20055A   26113.09002105  .00017518  00000+0  10479-2 0  9995,2 46027  53.0643 286.0473 0001426 185.1258 174.9719 15.11136855315592
STARLINK-1523,46028,53.1615,0.0001131,15.30186516,474.4802118358857,476.0304491810466,1 46028U 20055B   26113.65477629 -.00001679  00000+0 -44591-4 0  9992,2 46028  53.1615 277.8440 0001131  96.8940 263.2190 15.30186516315780
STARLINK-1526,46029,53.1621,0.0001236,15.30195636,474.3810236413692,476.075175493982,1 46029U 20055C   26113.64844638 -.00000140  00000+0  74139-5 0  9993,2 46029  53.1621 277.8825 0001236  83.4503 276.6638 15.30195636315775
STARLINK-1555,46032,53.1603,0.0001132,15.30206995,474.4183865997502,475.96998077973694,1 46032U 20055F   26112.84885728  .00000707  00000+0  35991-4 0  9993,2 46032  53.1603 281.5792 0001132 101.4830 258.6298 15.30206995315653
STARLINK-1556,46033,53.1588,0.0001405,15.30206489,474.23280125986366,476.15858774701974,1 46033U 20055G   26112.76669105  .00001162  00000+0  51348-4 0  9994,2 46033  53.1588 281.9767 0001405  91.3176 268.7985 15.30206489315614
STARLINK-1557,46034,53.1561,0.0001312,15.29355754,476.83750466937454,478.63648600575107,1 46034U 20055H   26113.15734613  .00005239  00000+0  19376-3 0  9999,2 46034  53.1561 280.1134 0001312  62.2228 297.8905 15.29355754315676
STARLINK-1558,46035,53.1539,0.0002687,15.30189684,473.4043673313763,477.0873752864172,1 46035U 20055J   26113.88759698 -.00001522  00000+0 -39255-4 0  9992,2 46035  53.1539 276.7761 0002687  59.5880 300.5386 15.30189684315818
STARLINK-1560,46036,53.1578,0.0002207,15.29362107,476.2049218344573,479.2310962354459,1 46036U 20055K   26111.78175462 -.00001548  00000+0 -41277-4 0  9996,2 46036  53.1578 286.5320 0002207  81.0179 279.1071 15.29362107315498
STARLINK-1567,46038,53.0825,0.0002512,15.94792121,287.2189232751143,290.5684394894397,1 46038U 20055M   26114.00003472  .00304822  47449-4  78224-3 0  9990,2 46038  53.0825 265.6216 0002512 320.2749  51.4353 15.94792121  2926
STARLINK-1569,46039,53.1599,0.0001677,15.30215639,474.0190752706485,476.3176738932825,1 46039U 20055N   26112.84569535 -.00000672  00000+0 -10558-4 0  9990,2 46039  53.1599 281.6013 0001677 123.1477 236.9685 15.30215639315646
STARLINK-1582,46043,53.1594,0.0001122,15.31705013,469.95660945204963,471.49349409646766,1 46043U 20055S   26113.69127012 -.00000699  00000+0 -10755-4 0  9997,2 46043  53.1594 277.5614 0001122  82.6444 277.4685 15.31705013315770
STARLINK-1591,46045,53.1607,0.0001068,15.30189672,474.513965844656,475.97784843362115,1 46045U 20055U   26113.66214128  .00001137  00000+0  50534-4 0  9996,2 46045  53.1607 277.8145 0001068  84.0537 276.0585 15.30189672315755
STARLINK-1524,46047,53.1599,0.0001153,15.30198449,474.42950840210506,476.00989245722485,1 46047U 20055W   26113.65630130  .00000598  00000+0  32298-4 0  9999,2 46047  53.1599 264.9735 0001153  91.3833 268.7299 15.30198449315958
STARLINK-1527,46048,53.1621,8.73e-05,15.31695322,470.1560319566415,471.3518483147882,1 46048U 20055X   26113.65594557 -.00000062  00000+0  97559-5 0  9991,2 46048  53.1621 265.0013 0000873  89.5468 270.5633 15.31695322315931
